{
  "links" : {
    "next" : "https://api.nasa.gov/neo/rest/v1/feed?start_date=2009-05-16&end_date=2009-05-16&detailed=true&api_key=t0TVs3DtDT2H8Oy2Zy8m2eVrNsAVKAexjcZXUckd",
    "prev" : "https://api.nasa.gov/neo/rest/v1/feed?start_date=2009-05-14&end_date=2009-05-14&detailed=true&api_key=t0TVs3DtDT2H8Oy2Zy8m2eVrNsAVKAexjcZXUckd",
    "self" : "https://api.nasa.gov/neo/rest/v1/feed?start_date=2009-05-15&end_date=2009-05-15&detailed=true&api_key=t0TVs3DtDT2H8Oy2Zy8m2eVrNsAVKAexjcZXUckd"
  },
  "element_count" : 4,
  "near_earth_objects" : {
    "2009-05-15" : [ {
      "links" : {
        "self" : "https://api.nasa.gov/neo/rest/v1/neo/3257080?api_key=t0TVs3DtDT2H8Oy2Zy8m2eVrNsAVKAexjcZXUckd"
      },
      "neo_reference_id" : "3257080",
      "name" : "(2004 UB)",
      "nasa_jpl_url" : "http://ssd.jpl.nasa.gov/sbdb.cgi?sstr=3257080",
      "absolute_magnitude_h" : 20.4,
      "estimated_diameter" : {
        "kilometers" : {
          "estimated_diameter_min" : 0.2210828104,
          "estimated_diameter_max" : 0.4943561926
        },
        "meters" : {
          "estimated_diameter_min" : 221.0828103591,
          "estimated_diameter_max" : 494.3561926196
        },
        "miles" : {
          "estimated_diameter_min" : 0.137374447,
          "estimated_diameter_max" : 0.3071786018
        },
        "feet" : {
          "estimated_diameter_min" : 725.3373275385,
          "estimated_diameter_max" : 1621.9035709942
        }
      },
      "is_potentially_hazardous_asteroid" : false,
      "close_approach_data" : [ {
        "close_approach_date" : "2009-05-15",
        "epoch_date_close_approach" : 1242370800000,
        "relative_velocity" : {
          "kilometers_per_second" : "17.8758297176",
          "kilometers_per_hour" : "64352.9869832178",
          "miles_per_hour" : "39986.4434952111"
        },
        "miss_distance" : {
          "astronomical" : "0.4186597176",
          "lunar" : "162.8586273193",
          "kilometers" : "62630604",
          "miles" : "38916852"
        },
        "orbiting_body" : "Earth"
      } ],
      "orbital_data" : {
        "orbit_id" : "23",
        "orbit_determination_date" : "2017-04-06 09:11:58",
        "orbit_uncertainty" : "0",
        "minimum_orbit_intersection" : ".0693033",
        "jupiter_tisserand_invariant" : "4.608",
        "epoch_osculation" : "2458000.5",
        "eccentricity" : ".6180511161719041",
        "semi_major_axis" : "1.36681526892415",
        "inclination" : "6.375392596747806",
        "ascending_node_longitude" : "242.9083844987215",
        "orbital_period" : "583.6643391010064",
        "perihelion_distance" : ".522053566364778",
        "perihelion_argument" : "36.81956111406383",
        "aphelion_distance" : "2.211576971483523",
        "perihelion_time" : "2457905.898169007292",
        "mean_anomaly" : "58.34973438642982",
        "mean_motion" : ".6167928651500156",
        "equinox" : "J2000"
      }
    }, {
      "links" : {
        "self" : "https://api.nasa.gov/neo/rest/v1/neo/3451790?api_key=t0TVs3DtDT2H8Oy2Zy8m2eVrNsAVKAexjcZXUckd"
      },
      "neo_reference_id" : "3451790",
      "name" : "(2009 FF)",
      "nasa_jpl_url" : "http://ssd.jpl.nasa.gov/sbdb.cgi?sstr=3451790",
      "absolute_magnitude_h" : 21.8,
      "estimated_diameter" : {
        "kilometers" : {
          "estimated_diameter_min" : 0.1160259082,
          "estimated_diameter_max" : 0.2594418179
        },
        "meters" : {
          "estimated_diameter_min" : 116.0259082094,
          "estimated_diameter_max" : 259.4418179074
        },
        "miles" : {
          "estimated_diameter_min" : 0.0720951346,
          "estimated_diameter_max" : 0.1612096218
        },
        "feet" : {
          "estimated_diameter_min" : 380.6624406898,
          "estimated_diameter_max" : 851.1870938635
        }
      },
      "is_potentially_hazardous_asteroid" : true,
      "close_approach_data" : [ {
        "close_approach_date" : "2009-05-15",
        "epoch_date_close_approach" : 1242370800000,
        "relative_velocity" : {
          "kilometers_per_second" : "9.7365383063",
          "kilometers_per_hour" : "35051.5379026642",
          "miles_per_hour" : "21779.6625373527"
        },
        "miss_distance" : {
          "astronomical" : "0.1721454361",
          "lunar" : "66.9645767212",
          "kilometers" : "25752592",
          "miles" : "16001919"
        },
        "orbiting_body" : "Earth"
      } ],
      "orbital_data" : {
        "orbit_id" : "19",
        "orbit_determination_date" : "2017-04-06 09:01:02",
        "orbit_uncertainty" : "0",
        "minimum_orbit_intersection" : ".0149534",
        "jupiter_tisserand_invariant" : "4.470",
        "epoch_osculation" : "2458000.5",
        "eccentricity" : ".4682313518216543",
        "semi_major_axis" : "1.474098502480045",
        "inclination" : ".982605668768778",
        "ascending_node_longitude" : "265.918934024379",
        "orbital_period" : "653.7145997003474",
        "perihelion_distance" : ".7838793679455373",
        "perihelion_argument" : "10.96850238468408",
        "aphelion_distance" : "2.164317637014553",
        "perihelion_time" : "2458265.995120834209",
        "mean_anomaly" : "213.7920928427686",
        "mean_motion" : ".5506990361925806",
        "equinox" : "J2000"
      }
    }, {
      "links" : {
        "self" : "https://api.nasa.gov/neo/rest/v1/neo/3463161?api_key=t0TVs3DtDT2H8Oy2Zy8m2eVrNsAVKAexjcZXUckd"
      },
      "neo_reference_id" : "3463161",
      "name" : "(2009 LQ1)",
      "nasa_jpl_url" : "http://ssd.jpl.nasa.gov/sbdb.cgi?sstr=3463161",
      "absolute_magnitude_h" : 22.0,
      "estimated_diameter" : {
        "kilometers" : {
          "estimated_diameter_min" : 0.1058168859,
          "estimated_diameter_max" : 0.2366137501
        },
        "meters" : {
          "estimated_diameter_min" : 105.8168859331,
          "estimated_diameter_max" : 236.6137501138
        },
        "miles" : {
          "estimated_diameter_min" : 0.0657515442,
          "estimated_diameter_max" : 0.1470249225
        },
        "feet" : {
          "estimated_diameter_min" : 347.1682720448,
          "estimated_diameter_max" : 776.2918559233
        }
      },
      "is_potentially_hazardous_asteroid" : false,
      "close_approach_data" : [ {
        "close_approach_date" : "2009-05-15",
        "epoch_date_close_approach" : 1242370800000,
        "relative_velocity" : {
          "kilometers_per_second" : "2.1987775088",
          "kilometers_per_hour" : "7915.599031681",
          "miles_per_hour" : "4918.4454094353"
        },
        "miss_distance" : {
          "astronomical" : "0.153849513",
          "lunar" : "59.8474617004",
          "kilometers" : "23015560",
          "miles" : "14301206"
        },
        "orbiting_body" : "Earth"
      } ],
      "orbital_data" : {
        "orbit_id" : "9",
        "orbit_determination_date" : "2017-04-06 09:00:27",
        "orbit_uncertainty" : "5",
        "minimum_orbit_intersection" : ".10734",
        "jupiter_tisserand_invariant" : "4.667",
        "epoch_osculation" : "2458000.5",
        "eccentricity" : ".2168995591767917",
        "semi_major_axis" : "1.427771152793845",
        "inclination" : "1.208356364937826",
        "ascending_node_longitude" : "104.2239744726064",
        "orbital_period" : "623.1410065520755",
        "perihelion_distance" : "1.118088219147521",
        "perihelion_argument" : "136.1122076207554",
        "aphelion_distance" : "1.73745408644017",
        "perihelion_time" : "2458095.217064898510",
        "mean_anomaly" : "305.280212656629",
        "mean_motion" : ".5777183594318873",
        "equinox" : "J2000"
      }
    }, {
      "links" : {
        "self" : "https://api.nasa.gov/neo/rest/v1/neo/3713939?api_key=t0TVs3DtDT2H8Oy2Zy8m2eVrNsAVKAexjcZXUckd"
      },
      "neo_reference_id" : "3713939",
      "name" : "(2015 FW33)",
      "nasa_jpl_url" : "http://ssd.jpl.nasa.gov/sbdb.cgi?sstr=3713939",
      "absolute_magnitude_h" : 25.8,
      "estimated_diameter" : {
        "kilometers" : {
          "estimated_diameter_min" : 0.0183888672,
          "estimated_diameter_max" : 0.0411187571
        },
        "meters" : {
          "estimated_diameter_min" : 18.388867207,
          "estimated_diameter_max" : 41.1187571041
        },
        "miles" : {
          "estimated_diameter_min" : 0.0114263088,
          "estimated_diameter_max" : 0.0255500032
        },
        "feet" : {
          "estimated_diameter_min" : 60.3309310875,
          "estimated_diameter_max" : 134.9040630575
        }
      },
      "is_potentially_hazardous_asteroid" : false,
      "close_approach_data" : [ {
        "close_approach_date" : "2009-05-15",
        "epoch_date_close_approach" : 1242370800000,
        "relative_velocity" : {
          "kilometers_per_second" : "16.9745575277",
          "kilometers_per_hour" : "61108.4070997693",
          "miles_per_hour" : "37970.3877337428"
        },
        "miss_distance" : {
          "astronomical" : "0.4845747903",
          "lunar" : "188.4995880127",
          "kilometers" : "72491360",
          "miles" : "45044040"
        },
        "orbiting_body" : "Earth"
      } ],
      "orbital_data" : {
        "orbit_id" : "14",
        "orbit_determination_date" : "2017-04-06 08:34:59",
        "orbit_uncertainty" : "7",
        "minimum_orbit_intersection" : ".0222432",
        "jupiter_tisserand_invariant" : "4.965",
        "epoch_osculation" : "2458000.5",
        "eccentricity" : ".2192213058129111",
        "semi_major_axis" : "1.30179893488763",
        "inclination" : "7.219844820626601",
        "ascending_node_longitude" : "178.1157563436371",
        "orbital_period" : "542.5181781684533",
        "perihelion_distance" : "1.016416872475707",
        "perihelion_argument" : ".4682251618369816",
        "aphelion_distance" : "1.587180997299553",
        "perihelion_time" : "2458187.117395222986",
        "mean_anomaly" : "236.1658779672915",
        "mean_motion" : ".6635722349716714",
        "equinox" : "J2000"
      }
    } ]
  }
}